# From MPC106342
C/1995 O1 (Hale-Bopp),e,89.2494,282.8132,130.4168,177.1818,0.0004179,0.99497101,0.0000,03/29.6623/1997,2000,g -2.0,4.0
# From NK 1615
P/1996 R2 (Lagerkvist),e,2.6009,40.0096,333.3770,3.774670,0.1343958,0.31453504,167.7705,07/15.0/2022,2000,g 11.5,4.0
# From MPC 75703
P/1998 VS24 (LINEAR),e,5.0266,159.0408,244.6086,4.525928,0.1023629,0.24299335,167.6152,07/15.0/2022,2000,g 13.0,2.0
# From NK 731
P/1999 RO28 (LONEOS),e,7.5663,137.8785,231.2848,3.426547,0.1553886,0.67250300,173.1345,07/15.0/2022,2000,g 20.0,2.0
# From MPC 75704
P/1999 XN120 (Catalina),e,5.0298,285.2963,161.7073,4.179033,0.1153693,0.21032880,214.9217,07/15.0/2022,2000,g 13.5,2.0
# From NK 744
P/2000 R2 (LINEAR),e,11.6873,160.2854,176.5808,3.467476,0.1526454,0.53150650,171.4502,07/15.0/2022,2000,g 18.0,4.0
# From MPC 43019
P/2001 H5 (NEAT),e,8.3671,328.6845,224.7645,6.096327,0.0654790,0.59819991,161.4102,07/15.0/2022,2000,g 12.0,4.0
# From MPC 75704
P/2001 Q6 (NEAT),e,56.9115,22.1835,42.9337,7.957582,0.0439069,0.82328078,333.9437,07/15.0/2022,2000,g 13.5,4.0
# From MPC 47727
P/2002 EJ57 (LINEAR),e,4.9770,330.3144,167.3017,6.464792,0.0599615,0.59231218,89.2596,07/15.0/2022,2000,g 12.5,4.0
# From MPC109588
P/2002 T6 (NEAT-LINEAR),e,10.8490,206.0908,219.5950,7.719033,0.0459579,0.56206435,326.1609,07/15.0/2022,2000,g 10.5,4.0
# From MPC 75007
C/2002 VQ94 (LINEAR),e,70.6787,35.1274,100.0136,184.2997,0.0003939,0.96303430,2.3679,07/15.0/2022,2000,g  9.5,2.0
# From MPC 50354
P/2003 F2 (NEAT),e,11.6098,359.0003,192.2550,6.502531,0.0594402,0.54152346,57.9939,07/15.0/2022,2000,g 16.5,2.0
# From MPC 50139
P/2003 QX29 (NEAT),e,11.3924,264.5249,37.6362,8.018039,0.0434112,0.47268655,311.4528,07/15.0/2022,2000,g  8.5,4.0
# From MPC105235
P/2003 T12 (SOHO),e,11.0226,174.5865,219.7452,2.585575,0.2370655,0.77007477,189.3789,07/15.0/2022,2000,g 17.0,4.0
# From MPC 82312
P/2004 A1 (LONEOS),e,10.5517,124.8568,21.1228,7.969310,0.0438100,0.30984112,287.7784,07/15.0/2022,2000,g  6.5,4.0
# From MPC 54558
P/2004 DO29 (Spacewatch-LINEAR),e,14.5318,147.3747,40.5423,7.293189,0.0500412,0.44117850,325.4734,07/15.0/2022,2000,g 13.5,2.0
# From MPC 54823
P/2004 FY140 (LINEAR),e,2.1348,326.7761,242.1745,4.906209,0.0906954,0.16786655,231.6199,07/15.0/2022,2000,g 12.5,2.0
# From MPC 53304
P/2004 R3 (LINEAR-NEAT),e,12.7818,305.3408,37.7371,4.767525,0.0946814,0.25613503,28.1183,07/15.0/2022,2000,g 14.5,4.0
# From MPC 55521
P/2004 V3 (Siding Spring),e,50.4439,356.1304,322.4617,7.132146,0.0517456,0.44604452,334.3397,07/15.0/2022,2000,g 11.5,4.0
# From MPC 75705
P/2004 V5 (LINEAR-Hill),e,19.3412,47.7873,87.5888,7.987337,0.0436617,0.44440784,278.9182,07/15.0/2022,2000,g  8.0,4.0
# From MPC 54164
P/2005 E1 (Tubbiolo),e,4.2634,335.5734,193.9191,7.048028,0.0526748,0.37542441,336.7921,07/15.0/2022,2000,g 10.0,4.0
# From MPC 79019
P/2005 J1 (McNaught),e,31.7435,268.8263,338.9406,3.571588,0.1460199,0.56911364,200.3857,07/15.0/2022,2000,g 16.5,4.0
# From MPC 74246
P/2005 L1 (McNaught),e,7.7350,138.2459,149.8953,3.985088,0.1238931,0.21132932,31.3848,07/15.0/2022,2000,g  9.5,4.0
# From MPC 75706
P/2005 S2 (Skiff),e,3.1356,161.2241,229.3466,8.007398,0.0434978,0.19836942,256.6060,07/15.0/2022,2000,g  7.5,4.0
# From MPC 75706
P/2005 SB216 (LONEOS),e,24.1100,1.1308,83.2643,7.143003,0.0516277,0.46443986,293.8652,07/15.0/2022,2000,g 12.0,2.0
# From MPC 73461
P/2005 T3 (Read),e,6.2236,27.6792,6.6723,7.587883,0.0471545,0.17522799,289.6589,07/15.0/2022,2000,g  9.0,4.0
# From MPC 73461
P/2005 T4 (SWAN),e,160.2608,25.8943,41.8078,9.359895,0.0344190,0.92972668,210.8309,07/15.0/2022,2000,g 15.0,4.0
# From MPC 75706
P/2005 T5 (Broughton),e,21.3760,57.0000,304.6665,7.282775,0.0501486,0.55265341,306.5837,07/15.0/2022,2000,g 11.0,4.0
# From MPC 75707
P/2006 HR30 (Siding Spring),e,31.8509,309.8534,117.3508,7.809568,0.0451610,0.84295238,257.0957,07/15.0/2022,2000,g 11.0,4.0
# From MPEC 2022-L66
C/2006 S3 (LONEOS),h,04/17.8826/2012,166.0351,38.6137,140.5573,1.002234,5.157632,2000,2.0,4.0
# From MPC 75707
P/2007 A2 (Christensen),e,26.4864,300.9126,186.7016,6.335338,0.0618087,0.55825286,351.5287,07/15.0/2022,2000,g 13.5,4.0
# From MPC 75707
P/2007 C2 (Catalina),e,8.6102,275.3316,180.1586,6.997303,0.0532486,0.47190765,288.2421,07/15.0/2022,2000,g 10.0,4.0
# From MPC 84315
C/2007 D1 (LINEAR),e,41.5015,171.2365,339.8377,1220,0.0000231,0.99279031,0.0000,06/07.0936/2007,2000,g  3.5,4.0
# From MPEC 2022-M21
C/2007 K1 (Lemmon),e,108.5042,294.6685,52.1983,492.3220,0.0000902,0.98119622,0.0000,05/15.4782/2007,2000,g  6.0,4.0
# From MPC 82314
P/2007 K2 (Gibbs),e,7.6275,188.6344,347.3673,7.273457,0.0502450,0.68300182,278.1238,07/15.0/2022,2000,g 14.0,4.0
# From MPEC 2022-N37
C/2007 M1 (McNaught),e,139.8229,326.8364,52.9080,2057,0.0000106,0.99634847,0.0000,08/13.4311/2008,2000,g  6.0,4.0
# From MPC 60925
P/2007 Q2 (Gilmore),e,10.2027,172.1524,162.8377,5.656458,0.0732634,0.67008188,43.5924,07/15.0/2022,2000,g 16.0,4.0
# From MPC 73462
P/2007 S1 (Zhao),e,5.9618,141.3620,245.2368,3.823071,0.1318516,0.33961645,348.9257,07/15.0/2022,2000,g 13.0,4.0
# From MPC 61994
P/2007 T2 (Kowalski),e,9.7523,3.3777,359.6579,3.045951,0.1854042,0.78565955,269.0436,07/15.0/2022,2000,g 18.5,4.0
# From MPC 63599
C/2007 W1 (Boattini),e,9.9281,333.8998,307.1497,2341,0.0000087,0.99963652,0.0000,06/29.3200/2008,2000,g  9.5,4.0
# From MPC 75709
P/2008 L2 (Hill),e,25.8682,218.0177,141.2580,6.027445,0.0666046,0.61341790,340.0148,07/15.0/2022,2000,g 12.5,4.0
# From MPC 64114
P/2008 O3 (Boattini),e,32.3220,47.5668,341.1528,8.216530,0.0418477,0.69624636,215.8645,07/15.0/2022,2000,g 13.0,4.0
# From MPC 75710
P/2008 Y3 (McNaught),e,38.7768,262.8453,238.0694,8.047864,0.0431701,0.44569224,214.0907,07/15.0/2022,2000,g  8.5,4.0
# From MPC 75710
P/2009 B1 (Boattini),e,22.2315,297.0779,128.8897,6.737477,0.0563583,0.63546579,278.4524,07/15.0/2022,2000,g 13.0,4.0
# From MPC 66466
C/2009 G1 (STEREO),e,108.5718,120.5269,175.4960,461.3636,0.0000995,0.99753024,0.0000,04/17.9036/2009,2000,g  9.0,4.0
# From MPC 75710
P/2009 O3 (Hill),e,16.2881,183.6856,154.4812,7.767117,0.0455317,0.68785025,218.3600,07/15.0/2022,2000,g 12.5,4.0
# From MPC 68902
P/2009 Q5 (McNaught),e,40.9879,160.2790,209.0866,7.430948,0.0486561,0.60974951,228.1317,07/15.0/2022,2000,g 10.0,4.0
# From MPC112389
P/2009 T2 (La Sagra),e,27.5996,215.8871,216.3294,7.719690,0.0459520,0.76622248,210.4910,07/15.0/2022,2000,g 14.0,4.0
# From MPC105235
P/2009 WX51 (Catalina),e,9.5942,31.5782,118.2501,3.082757,0.1820938,0.73953850,110.3484,07/15.0/2022,2000,g 19.0,2.0
# From MPC 74247
P/2009 Y2 (Kowalski),e,29.9559,262.0380,172.1299,6.550060,0.0587944,0.63661876,265.8352,07/15.0/2022,2000,g 13.0,4.0
# From MPC 75711
P/2010 A3 (Hill),e,14.8171,63.6583,42.2687,6.085144,0.0656595,0.73367689,296.2471,07/15.0/2022,2000,g 14.0,4.0
# From MPC 75008
P/2010 C1 (Scotti),e,9.1269,141.8793,3.4334,7.104539,0.0520475,0.26002334,241.3778,07/15.0/2022,2000,g  9.5,4.0
# From MPC 75008
P/2010 D2 (WISE),e,57.0942,319.8853,119.9463,6.720477,0.0565723,0.45135005,256.9736,07/15.0/2022,2000,g 16.0,4.0
# From MPC 75009
P/2010 E2 (Jarnac),e,15.3847,177.8198,8.3167,8.640274,0.0388072,0.71943982,174.4187,07/15.0/2022,2000,g 14.0,4.0
# From MPEC 2021-BE3
C/2010 E3 (WISE),e,96.1377,117.2069,50.5312,231.0276,0.0002807,0.99013905,0.0000,03/28.8829/2010,2000,g 15.0,4.0
# From MPEC 2022-N37
C/2010 G3 (WISE),e,108.4386,313.8099,75.2112,1418,0.0000185,0.99654100,0.0000,04/14.6247/2010,2000,g  8.5,4.0
# From MPEC 2022-N37
C/2010 H1 (Garradd),e,36.3276,347.2542,234.1226,3040,0.0000059,0.99908704,0.0000,06/13.6862/2010,2000,g 13.0,4.0
# From MPC 72851
P/2010 H2 (Vales),e,14.2780,64.1872,128.0203,3.832382,0.1313714,0.19645206,232.6631,07/15.0/2022,2000,g  6.0,4.0
# From MPC 70361
P/2010 H3 (SOHO),e,23.0701,77.0908,26.1521,3.036422,0.1862777,0.98536199,0.0000,02/07.8834/2021,2000,g 20.0,2.0
# From MPC 73463
P/2010 H4 (Scotti),e,2.3178,44.7276,179.3721,6.598399,0.0581495,0.26629056,256.9561,07/15.0/2022,2000,g 10.5,4.0
# From MPC 74637
P/2010 H5 (Scotti),e,14.0576,24.7946,174.8347,7.169399,0.0513429,0.15254326,230.9824,07/15.0/2022,2000,g 13.0,2.0
# From MPC 98558
P/2010 J3 (McMillan),e,13.2702,106.4561,157.5886,8.978964,0.0366323,0.72583263,159.0030,07/15.0/2022,2000,g 11.0,4.0
# From MPC 84315
P/2010 JC81 (WISE),e,38.8129,30.8655,12.4241,8.106474,0.0427028,0.77775427,175.0927,07/15.0/2022,2000,g  9.0,4.0
# From MPC 74248
P/2010 T2 (PANSTARRS),e,7.8866,58.6022,352.7890,5.561762,0.0751425,0.32291144,314.0798,07/15.0/2022,2000,g 11.5,4.0
# From MPC 98558
P/2010 TO20 (LINEAR-Grauer),e,2.4788,43.2856,267.3589,5.832897,0.0699645,0.05561583,350.5800,07/15.0/2022,2000,g  9.0,4.0
# From MPC 82316
P/2010 U1 (Boattini),e,8.2190,280.6847,86.1930,6.503314,0.0594295,0.24907216,270.0540,07/15.0/2022,2000,g  9.5,4.0
# From MPEC 2022-M21
C/2010 U3 (Boattini),e,55.5501,42.9981,88.0418,2410,0.0000083,0.99649764,0.0000,02/25.2325/2019,2000,g  1.0,4.0
# From MPC 79021
P/2010 UH55 (Spacewatch),e,8.0385,232.9102,225.1442,6.654627,0.0574141,0.56359733,236.4773,07/15.0/2022,2000,g 11.0,4.0
# From MPC 75009
P/2010 WK (LINEAR),e,11.4016,11.3345,40.9724,5.762405,0.0712522,0.69041625,307.4541,07/15.0/2022,2000,g 14.5,2.0
# From MPC 84021
P/2011 C2 (Gibbs),e,10.8868,12.1208,160.5883,7.412714,0.0488358,0.26905415,188.5024,07/15.0/2022,2000,g  9.0,4.0
# From MPC 79866
P/2011 FR143 (Lemmon),e,15.9755,190.9490,349.9676,6.862724,0.0548226,0.45053984,228.2352,07/15.0/2022,2000,g 14.0,2.0
# From MPC 82317
P/2011 JB15 (Spacewatch-Boattini),e,19.1472,153.5830,111.0677,7.364363,0.0493175,0.31629976,188.9051,07/15.0/2022,2000,g  9.0,4.0
# From MPC 87913
P/2011 N1 (ASH),e,35.7580,77.5800,330.3715,6.245580,0.0631459,0.54485425,234.0324,07/15.0/2022,2000,g 11.5,4.0
# From MPC 75714
P/2011 NO1 (Elenin),e,15.2449,295.8249,263.7181,5.530259,0.0757855,0.77455197,318.3126,07/15.0/2022,2000,g 15.0,4.0
# From MPEC 2022-ED3
P/2011 P1 (McNaught),e,5.6611,4.2316,349.1110,7.459945,0.0483727,0.32764884,211.2567,07/15.0/2022,2000,g  9.0,4.0
# From MPEC 2022-HC2
